ONEWEB-0637             
1 56078U 23043AJ  26071.08073670  .00000049  00000+0  97308-4 0  9998
2 56078  87.8935 278.6056 0001433  78.7108 281.4183 13.15548699143662
ONEWEB-0647             
1 56079U 23043AK  26071.30415415 -.00000067  00000+0 -21318-3 0  9990
2 56079  87.8936 278.5733 0001554  94.4894 265.6414 13.15547603143683
ONEWEB-0651             
1 56080U 23043AL  26071.07122784 -.00000093  00000+0 -28178-3 0  9990
2 56080  87.8935 278.6148 0001356  84.6041 275.5244 13.15547642144854
ONEWEB-0718             
1 56081U 23043AM  26071.06647428 -.00000085  00000+0 -25950-3 0  9993
2 56081  87.8936 278.5963 0002020  79.6351 280.5007 13.15548306143666
ONEWEB-0561             
1 56710U 23068A   26071.15332133  .00000062  00000+0  12068-3 0  9992
2 56710  87.9160 293.8188 0001270  97.0792 263.0486 13.20770539136696
ONEWEB-0668             
1 56711U 23068B   26071.00082085  .00000104  00000+0  23774-3 0  9998
2 56711  87.9017 248.0941 0001741  77.8364 282.2962 13.16593861138994
ONEWEB-0676             
1 56712U 23068C   26071.23672717  .00000138  00000+0  32731-3 0  9991
2 56712  87.9005 248.0592 0001284  99.8879 260.2397 13.16594932138944
ONEWEB-0677             
1 56713U 23068D   26071.14228608  .00000913  00000+0  22148-2 0  9999
2 56713  87.9173 293.8124 0001543  81.0206 279.1102 13.20763254136991
ONEWEB-0678             
1 56714U 23068E   26071.11084159  .00000104  00000+0  24155-3 0  9991
2 56714  87.8944 278.5700 0001683 100.0352 260.0969 13.15547997136523
ONEWEB-0679             
1 56715U 23068F   26071.19556292  .00000018  00000+0  12296-4 0  9990
2 56715  87.9017 248.0535 0001302  76.3898 283.7378 13.16594297138964
ONEWEB-0680             
1 56716U 23068G   26071.28099022  .00000102  00000+0  21542-3 0  9991
2 56716  87.9175 263.2856 0001644  72.1015 288.0298 13.21827272138292
ONEWEB-0681             
1 56717U 23068H   26071.03332516  .00000023  00000+0  24306-4 0  9997
2 56717  87.9164 263.3435 0000692 112.9402 247.1805 13.21825808138259
ONEWEB-0682             
1 56718U 23068J   26071.28910281 -.00000217  00000+0 -60944-3 0  9990
2 56718  87.8935 278.5409 0001656  71.2590 288.8720 13.15547367136711
ONEWEB-0683             
1 56719U 23068K   26071.08232105  .00000073  00000+0  16040-3 0  9997
2 56719  87.8944 278.5751 0001699  79.5681 280.5640 13.15547975136659
ONEWEB-0684             
1 56720U 23068L   26071.09024642  .00000135  00000+0  32514-3 0  9998
2 56720  87.8944 278.5666 0002814 111.7950 248.3480 13.15547444136480
ONEWEB-0686             
1 56721U 23068M   26071.00398188  .00000139  00000+0  32923-3 0  9997
2 56721  87.8996 248.1299 0001941  90.2631 269.8723 13.16594372138922
