[{"OBJECT_NAME":"ONEWEB-0637","OBJECT_ID":"2023-043AJ","EPOCH":"2026-03-12T01:56:15.650880","MEAN_MOTION":13.15548699,"ECCENTRICITY":0.0001433,"INCLINATION":87.8935,"RA_OF_ASC_NODE":278.6056,"ARG_OF_PERICENTER":78.7108,"MEAN_ANOMALY":281.4183,"EPHEMERIS_TYPE":0,"CLASSIFICATION_TYPE":"U","NORAD_CAT_ID":56078,"ELEMENT_SET_NO":999,"REV_AT_EPOCH":14366,"BSTAR":9.7307549e-5,"MEAN_MOTION_DOT":4.9e-7,"MEAN_MOTION_DDOT":0},{"OBJECT_NAME":"ONEWEB-0647","OBJECT_ID":"2023-043AK","EPOCH":"2026-03-12T07:17:58.918560","MEAN_MOTION":13.15547603,"ECCENTRICITY":0.00015546,"INCLINATION":87.8936,"RA_OF_ASC_NODE":278.5733,"ARG_OF_PERICENTER":94.4894,"MEAN_ANOMALY":265.6414,"EPHEMERIS_TYPE":0,"CLASSIFICATION_TYPE":"U","NORAD_CAT_ID":56079,"ELEMENT_SET_NO":999,"REV_AT_EPOCH":14368,"BSTAR":-0.0002131824,"MEAN_MOTION_DOT":-6.7e-7,"MEAN_MOTION_DDOT":0},{"OBJECT_NAME":"ONEWEB-0651","OBJECT_ID":"2023-043AL","EPOCH":"2026-03-12T01:42:34.085376","MEAN_MOTION":13.15547642,"ECCENTRICITY":0.00013567,"INCLINATION":87.8935,"RA_OF_ASC_NODE":278.6148,"ARG_OF_PERICENTER":84.6041,"MEAN_ANOMALY":275.5244,"EPHEMERIS_TYPE":0,"CLASSIFICATION_TYPE":"U","NORAD_CAT_ID":56080,"ELEMENT_SET_NO":999,"REV_AT_EPOCH":14485,"BSTAR":-0.00028178055,"MEAN_MOTION_DOT":-9.3e-7,"MEAN_MOTION_DDOT":0},{"OBJECT_NAME":"ONEWEB-0718","OBJECT_ID":"2023-043AM","EPOCH":"2026-03-12T01:35:43.377792","MEAN_MOTION":13.15548306,"ECCENTRICITY":0.00020209,"INCLINATION":87.8936,"RA_OF_ASC_NODE":278.5963,"ARG_OF_PERICENTER":79.6351,"MEAN_ANOMALY":280.5007,"EPHEMERIS_TYPE":0,"CLASSIFICATION_TYPE":"U","NORAD_CAT_ID":56081,"ELEMENT_SET_NO":999,"REV_AT_EPOCH":14366,"BSTAR":-0.0002594977,"MEAN_MOTION_DOT":-8.5e-7,"MEAN_MOTION_DDOT":0},{"OBJECT_NAME":"ONEWEB-0561","OBJECT_ID":"2023-068A","EPOCH":"2026-03-12T03:40:46.962912","MEAN_MOTION":13.20770539,"ECCENTRICITY":0.00012701,"INCLINATION":87.916,"RA_OF_ASC_NODE":293.8188,"ARG_OF_PERICENTER":97.0792,"MEAN_ANOMALY":263.0486,"EPHEMERIS_TYPE":0,"CLASSIFICATION_TYPE":"U","NORAD_CAT_ID":56710,"ELEMENT_SET_NO":999,"REV_AT_EPOCH":13669,"BSTAR":0.00012068476,"MEAN_MOTION_DOT":6.2e-7,"MEAN_MOTION_DDOT":0},{"OBJECT_NAME":"ONEWEB-0668","OBJECT_ID":"2023-068B","EPOCH":"2026-03-12T00:01:10.921440","MEAN_MOTION":13.16593861,"ECCENTRICITY":0.0001741,"INCLINATION":87.9017,"RA_OF_ASC_NODE":248.0941,"ARG_OF_PERICENTER":77.8364,"MEAN_ANOMALY":282.2962,"EPHEMERIS_TYPE":0,"CLASSIFICATION_TYPE":"U","NORAD_CAT_ID":56711,"ELEMENT_SET_NO":999,"REV_AT_EPOCH":13899,"BSTAR":0.00023774204,"MEAN_MOTION_DOT":1.04e-6,"MEAN_MOTION_DDOT":0},{"OBJECT_NAME":"ONEWEB-0676","OBJECT_ID":"2023-068C","EPOCH":"2026-03-12T05:40:53.227488","MEAN_MOTION":13.16594932,"ECCENTRICITY":0.00012846,"INCLINATION":87.9005,"RA_OF_ASC_NODE":248.0592,"ARG_OF_PERICENTER":99.8879,"MEAN_ANOMALY":260.2397,"EPHEMERIS_TYPE":0,"CLASSIFICATION_TYPE":"U","NORAD_CAT_ID":56712,"ELEMENT_SET_NO":999,"REV_AT_EPOCH":13894,"BSTAR":0.00032731328,"MEAN_MOTION_DOT":1.38e-6,"MEAN_MOTION_DDOT":0},{"OBJECT_NAME":"ONEWEB-0677","OBJECT_ID":"2023-068D","EPOCH":"2026-03-12T03:24:53.517312","MEAN_MOTION":13.20763254,"ECCENTRICITY":0.00015434,"INCLINATION":87.9173,"RA_OF_ASC_NODE":293.8124,"ARG_OF_PERICENTER":81.0206,"MEAN_ANOMALY":279.1102,"EPHEMERIS_TYPE":0,"CLASSIFICATION_TYPE":"U","NORAD_CAT_ID":56713,"ELEMENT_SET_NO":999,"REV_AT_EPOCH":13699,"BSTAR":0.0022147945,"MEAN_MOTION_DOT":9.13e-6,"MEAN_MOTION_DDOT":0},{"OBJECT_NAME":"ONEWEB-0678","OBJECT_ID":"2023-068E","EPOCH":"2026-03-12T02:39:36.713376","MEAN_MOTION":13.15547997,"ECCENTRICITY":0.00016839,"INCLINATION":87.8944,"RA_OF_ASC_NODE":278.57,"ARG_OF_PERICENTER":100.0352,"MEAN_ANOMALY":260.0969,"EPHEMERIS_TYPE":0,"CLASSIFICATION_TYPE":"U","NORAD_CAT_ID":56714,"ELEMENT_SET_NO":999,"REV_AT_EPOCH":13652,"BSTAR":0.00024154663,"MEAN_MOTION_DOT":1.04e-6,"MEAN_MOTION_DDOT":0},{"OBJECT_NAME":"ONEWEB-0679","OBJECT_ID":"2023-068F","EPOCH":"2026-03-12T04:41:36.636288","MEAN_MOTION":13.16594297,"ECCENTRICITY":0.00013023,"INCLINATION":87.9017,"RA_OF_ASC_NODE":248.0535,"ARG_OF_PERICENTER":76.3898,"MEAN_ANOMALY":283.7378,"EPHEMERIS_TYPE":0,"CLASSIFICATION_TYPE":"U","NORAD_CAT_ID":56715,"ELEMENT_SET_NO":999,"REV_AT_EPOCH":13896,"BSTAR":1.2296222e-5,"MEAN_MOTION_DOT":1.8e-7,"MEAN_MOTION_DDOT":0},{"OBJECT_NAME":"ONEWEB-0680","OBJECT_ID":"2023-068G","EPOCH":"2026-03-12T06:44:37.555008","MEAN_MOTION":13.21827272,"ECCENTRICITY":0.00016446,"INCLINATION":87.9175,"RA_OF_ASC_NODE":263.2856,"ARG_OF_PERICENTER":72.1015,"MEAN_ANOMALY":288.0298,"EPHEMERIS_TYPE":0,"CLASSIFICATION_TYPE":"U","NORAD_CAT_ID":56716,"ELEMENT_SET_NO":999,"REV_AT_EPOCH":13829,"BSTAR":0.00021541957,"MEAN_MOTION_DOT":1.02e-6,"MEAN_MOTION_DDOT":0},{"OBJECT_NAME":"ONEWEB-0681","OBJECT_ID":"2023-068H","EPOCH":"2026-03-12T00:47:59.293824","MEAN_MOTION":13.21825808,"ECCENTRICITY":6.924e-5,"INCLINATION":87.9164,"RA_OF_ASC_NODE":263.3435,"ARG_OF_PERICENTER":112.9402,"MEAN_ANOMALY":247.1805,"EPHEMERIS_TYPE":0,"CLASSIFICATION_TYPE":"U","NORAD_CAT_ID":56717,"ELEMENT_SET_NO":999,"REV_AT_EPOCH":13825,"BSTAR":2.4305907e-5,"MEAN_MOTION_DOT":2.3e-7,"MEAN_MOTION_DDOT":0},{"OBJECT_NAME":"ONEWEB-0682","OBJECT_ID":"2023-068J","EPOCH":"2026-03-12T06:56:18.482784","MEAN_MOTION":13.15547367,"ECCENTRICITY":0.00016568,"INCLINATION":87.8935,"RA_OF_ASC_NODE":278.5409,"ARG_OF_PERICENTER":71.259,"MEAN_ANOMALY":288.872,"EPHEMERIS_TYPE":0,"CLASSIFICATION_TYPE":"U","NORAD_CAT_ID":56718,"ELEMENT_SET_NO":999,"REV_AT_EPOCH":13671,"BSTAR":-0.00060944084,"MEAN_MOTION_DOT":-2.17e-6,"MEAN_MOTION_DDOT":0},{"OBJECT_NAME":"ONEWEB-0683","OBJECT_ID":"2023-068K","EPOCH":"2026-03-12T01:58:32.538720","MEAN_MOTION":13.15547975,"ECCENTRICITY":0.00016991,"INCLINATION":87.8944,"RA_OF_ASC_NODE":278.5751,"ARG_OF_PERICENTER":79.5681,"MEAN_ANOMALY":280.564,"EPHEMERIS_TYPE":0,"CLASSIFICATION_TYPE":"U","NORAD_CAT_ID":56719,"ELEMENT_SET_NO":999,"REV_AT_EPOCH":13665,"BSTAR":0.00016040117,"MEAN_MOTION_DOT":7.3e-7,"MEAN_MOTION_DDOT":0},{"OBJECT_NAME":"ONEWEB-0684","OBJECT_ID":"2023-068L","EPOCH":"2026-03-12T02:09:57.290688","MEAN_MOTION":13.15547444,"ECCENTRICITY":0.00028141,"INCLINATION":87.8944,"RA_OF_ASC_NODE":278.5666,"ARG_OF_PERICENTER":111.795,"MEAN_ANOMALY":248.348,"EPHEMERIS_TYPE":0,"CLASSIFICATION_TYPE":"U","NORAD_CAT_ID":56720,"ELEMENT_SET_NO":999,"REV_AT_EPOCH":13648,"BSTAR":0.00032513742,"MEAN_MOTION_DOT":1.35e-6,"MEAN_MOTION_DDOT":0},{"OBJECT_NAME":"ONEWEB-0686","OBJECT_ID":"2023-068M","EPOCH":"2026-03-12T00:05:44.034432","MEAN_MOTION":13.16594372,"ECCENTRICITY":0.00019419,"INCLINATION":87.8996,"RA_OF_ASC_NODE":248.1299,"ARG_OF_PERICENTER":90.2631,"MEAN_ANOMALY":269.8723,"EPHEMERIS_TYPE":0,"CLASSIFICATION_TYPE":"U","NORAD_CAT_ID":56721,"ELEMENT_SET_NO":999,"REV_AT_EPOCH":13892,"BSTAR":0.00032923498,"MEAN_MOTION_DOT":1.39e-6,"MEAN_MOTION_DDOT":0}]
